NORAD_CAT_ID,OBJECT_NAME,OBJECT_TYPE,EPOCH,MEAN_MOTION,ECCENTRICITY,INCLINATION,RA_OF_ASC_NODE,ARG_OF_PERICENTER,MEAN_ANOMALY,BSTAR,MEAN_MOTION_DOT,MEAN_MOTION_DDOT,TLE_LINE0,TLE_LINE1,TLE_LINE2,SEMIMAJOR_AXIS,PERIOD,APOGEE,PERIGEE,DECAYED
54797.0,STARLINK-5435,PAYLOAD,2023-02-15 05:26:22,15.08858591,0.0001083,53.2178,24.7671,107.3247,252.7864,-6.0132e-05,-1.245e-05,0.0,0 STARLINK-5435,1 54797U 22175AR  23046.22664369 -.00001245  00000-0 -60132-4 0  9992,2 54797  53.2178  24.7671 0001083 107.3247 252.7864 15.08858591  8915,6917.824,95.436,540.438,538.939,0.0
54797.0,STARLINK-5435,PAYLOAD,2023-02-15 14:58:41,15.08837193,0.0001138,53.2186,22.9853,93.5002,266.6121,0.00017856,2.555e-05,0.0,0 STARLINK-5435,1 54797U 22175AR  23046.62409044  .00002555  00000-0  17856-3 0  9990,2 54797  53.2186  22.9853 0001138  93.5002 266.6121 15.08837193  8973,6917.889,95.438,540.541,538.967,0.0
54797.0,STARLINK-5435,PAYLOAD,2023-02-15 21:20:12,15.08747457,0.0001134,53.2187,21.798,137.8845,222.2235,0.0011501,0.00018017,0.0,0 STARLINK-5435,1 54797U 22175AR  23046.88903911  .00018017  00000-0  11501-2 0  9990,2 54797  53.2187  21.7980 0001134 137.8845 222.2235 15.08747457 11178,6918.163,95.443,540.813,539.244,0.0
54797.0,STARLINK-5435,PAYLOAD,2023-02-16 02:06:23,15.08814027,0.00016,53.2187,20.9061,84.268,275.8495,0.00040957,6.232e-05,0.0,0 STARLINK-5435,1 54797U 22175AR  23047.08777409  .00006232  00000-0  40957-3 0  9998,2 54797  53.2187  20.9061 0001600  84.2680 275.8495 15.08814027  9042,6917.96,95.439,540.932,538.718,0.0
54797.0,STARLINK-5435,PAYLOAD,2023-02-16 06:52:31,15.0885467,0.0001243,53.2183,20.0067,99.7375,260.3757,0.00023866,3.514e-05,0.0,0 STARLINK-5435,1 54797U 22175AR  23047.28647819  .00003514  00000-0  23866-3 0  9991,2 54797  53.2183  20.0067 0001243  99.7375 260.3757 15.08854670  9071,6917.836,95.437,540.56,538.841,0.0
54797.0,STARLINK-5435,PAYLOAD,2023-02-16 14:49:29,15.08825725,0.000206,53.2177,18.5235,75.7538,284.3683,1.1177e-05,-1.1e-06,0.0,0 STARLINK-5435,1 54797U 22175AR  23047.61770831 -.00000110  00000-0  11177-4 0  9992,2 54797  53.2177  18.5235 0002060  75.7538 284.3683 15.08825725  9125,6917.924,95.438,541.214,538.364,0.0
54797.0,STARLINK-5435,PAYLOAD,2023-02-17 01:57:13,15.08817865,9.17e-05,53.2179,16.4454,102.72,257.3894,-0.00021727,-3.742e-05,0.0,0 STARLINK-5435,1 54797U 22175AR  23048.08140251 -.00003742  00000-0 -21727-3 0  9997,2 54797  53.2179  16.4454 0000917 102.7200 257.3894 15.08817865  9190,6917.948,95.439,540.447,539.179,0.0
54797.0,STARLINK-5435,PAYLOAD,2023-02-17 06:43:21,15.08833537,8.03e-05,53.2179,15.5532,97.9414,262.1669,-7.7531e-05,-1.521e-05,0.0,0 STARLINK-5435,1 54797U 22175AR  23048.28011014 -.00001521  00000-0 -77531-4 0  9991,2 54797  53.2179  15.5532 0000803  97.9414 262.1669 15.08833537  9225,6917.9,95.438,540.321,539.21,0.0
54797.0,STARLINK-5435,PAYLOAD,2023-02-18 06:34:09,15.08836924,0.0001118,53.2187,11.0855,89.3984,270.7136,-0.00012919,-2.343e-05,0.0,0 STARLINK-5435,1 54797U 22175AR  23049.27371752 -.00002343  00000-0 -12919-3 0  9990,2 54797  53.2187  11.0855 0001118  89.3984 270.7136 15.08836924 11534,6917.89,95.438,540.528,538.981,0.0
54797.0,STARLINK-5435,PAYLOAD,2023-02-18 14:31:03,15.08851207,8.42e-05,53.218,9.5994,81.5555,278.5533,-6.7731e-05,-1.366e-05,0.0,0 STARLINK-5435,1 54797U 22175AR  23049.60490503 -.00001366  00000-0 -67731-4 0  9990,2 54797  53.2180   9.5994 0000842  81.5555 278.5533 15.08851207  9427,6917.846,95.437,540.294,539.129,0.0
54797.0,STARLINK-5435,PAYLOAD,2023-02-19 06:24:54,15.08853508,6.75e-05,53.2179,6.6266,64.8131,295.2931,0.00025587,3.788e-05,0.0,0 STARLINK-5435,1 54797U 22175AR  23050.26729386  .00003788  00000-0  25587-3 0  9998,2 54797  53.2179   6.6266 0000675  64.8131 295.2931 15.08853508  9528,6917.839,95.437,540.171,539.237,0.0
54797.0,STARLINK-5435,PAYLOAD,2023-02-19 14:21:51,15.08838754,0.0001357,53.2189,5.1424,73.6672,286.4469,0.00010214,1.338e-05,0.0,0 STARLINK-5435,1 54797U 22175AR  23050.59850893  .00001338  00000-0  10214-3 0  9992,2 54797  53.2189   5.1424 0001357  73.6672 286.4469 15.08838754 11735,6917.884,95.438,540.688,538.81,0.0
54797.0,STARLINK-5435,PAYLOAD,2023-02-20 03:04:56,15.08834246,0.0001068,53.2183,2.7614,91.1133,268.9982,-1.9561e-05,-5.99e-06,0.0,0 STARLINK-5435,1 54797U 22175AR  23051.12843721 -.00000599  00000-0 -19561-4 0  9999,2 54797  53.2183   2.7614 0001068  91.1133 268.9982 15.08834246  9654,6917.898,95.438,540.502,539.024,0.0
54797.0,STARLINK-5435,PAYLOAD,2023-02-20 06:15:43,15.08834402,0.0001076,53.2191,2.1659,87.6771,272.4345,-2.5261e-05,-6.9e-06,0.0,0 STARLINK-5435,1 54797U 22175AR  23051.26091796 -.00000690  00000-0 -25261-4 0  9997,2 54797  53.2191   2.1659 0001076  87.6771 272.4345 15.08834402 11833,6917.897,95.438,540.507,539.018,0.0
54797.0,STARLINK-5435,PAYLOAD,2023-02-21 02:55:42,15.0885891,9.36e-05,53.2177,358.3021,79.1378,280.972,-9.7364e-05,-1.838e-05,0.0,0 STARLINK-5435,1 54797U 22175AR  23052.12202235 -.00001838  00000-0 -97364-4 0  9993,2 54797  53.2177 358.3021 0000936  79.1378 280.9720 15.08858910  9804,6917.823,95.436,540.335,539.04,0.0
54797.0,STARLINK-5435,PAYLOAD,2023-02-21 20:24:57,15.08837278,0.0001188,53.2185,355.0306,92.6718,267.441,0.00010232,1.341e-05,0.0,0 STARLINK-5435,1 54797U 22175AR  23052.85066542  .00001341  00000-0  10232-3 0  9997,2 54797  53.2185 355.0306 0001188  92.6718 267.4410 15.08837278  9913,6917.889,95.438,540.576,538.932,0.0
54797.0,STARLINK-5435,PAYLOAD,2023-02-22 05:57:15,15.08849167,0.0001065,53.2174,353.2475,75.9112,284.1999,0.00013148,1.806e-05,0.0,0 STARLINK-5435,1 54797U 22175AR  23053.24809713  .00001806  00000-0  13148-3 0  9991,2 54797  53.2174 353.2475 0001065  75.9112 284.1999 15.08849167  9978,6917.852,95.437,540.454,538.981,0.0
54797.0,STARLINK-5435,PAYLOAD,2023-02-23 02:37:18,15.08826632,8.49e-05,53.2174,349.3823,83.1572,276.9516,-0.00011114,-2.055e-05,0.0,0 STARLINK-5435,1 54797U 22175AR  23054.10924374 -.00002055  00000-0 -11114-3 0  9998,2 54797  53.2174 349.3823 0000849  83.1572 276.9516 15.08826632 10104,6917.921,95.438,540.374,539.199,0.0
54797.0,STARLINK-5435,PAYLOAD,2023-02-23 05:48:04,15.08840087,0.0001091,53.2179,348.7862,79.1966,280.9149,-0.00013168,-2.383e-05,0.0,0 STARLINK-5435,1 54797U 22175AR  23054.24171660 -.00002383  00000-0 -13168-3 0  9990,2 54797  53.2179 348.7862 0001091  79.1966 280.9149 15.08840087 10126,6917.88,95.438,540.5,538.99,0.0
54797.0,STARLINK-5435,PAYLOAD,2023-02-24 02:28:03,15.08858508,0.0001043,53.2171,344.921,73.9622,286.1485,0.00012607,1.72e-05,0.0,0 STARLINK-5435,1 54797U 22175AR  23055.10281589  .00001720  00000-0  12607-3 0  9997,2 54797  53.2171 344.9210 0001043  73.9622 286.1485 15.08858508 10253,6917.824,95.436,540.41,538.967,0.0
54797.0,STARLINK-5435,PAYLOAD,2023-02-24 05:38:49,15.08861516,0.0001112,53.2174,344.3262,79.907,280.2048,0.00014686,2.052e-05,0.0,0 STARLINK-5435,1 54797U 22175AR  23055.23529192  .00002052  00000-0  14686-3 0  9994,2 54797  53.2174 344.3262 0001112  79.9070 280.2048 15.08861516 12432,6917.815,95.436,540.449,538.91,0.0
54797.0,STARLINK-5435,PAYLOAD,2023-02-25 03:54:15,15.08834781,0.0001226,53.2181,340.1637,75.2883,284.8245,1.0538e-05,-1.2e-06,0.0,0 STARLINK-5435,1 54797U 22175AR  23056.16267899 -.00000120  00000-0  10538-4 0  9998,2 54797  53.2181 340.1637 0001226  75.2883 284.8245 15.08834781 10416,6917.896,95.438,540.609,538.913,0.0
54797.0,STARLINK-5435,PAYLOAD,2023-02-25 05:29:38,15.08835534,0.0001206,53.2177,339.8664,75.9443,284.1683,1.8636e-05,9e-08,0.0,0 STARLINK-5435,1 54797U 22175AR  23056.22891857  .00000009  00000-0  18636-4 0  9994,2 54797  53.2177 339.8664 0001206  75.9443 284.1683 15.08835534 12589,6917.894,95.438,540.593,538.925,0.0
54797.0,STARLINK-5435,PAYLOAD,2023-02-26 03:45:00,15.08865473,0.0001093,53.2181,335.703,77.9429,282.1686,3.1611e-05,2.16e-06,0.0,0 STARLINK-5435,1 54797U 22175AR  23057.15625768  .00000216  00000-0  31611-4 0  9991,2 54797  53.2181 335.7030 0001093  77.9429 282.1686 15.08865473 10568,6917.803,95.436,540.424,538.911,0.0
54797.0,STARLINK-5435,PAYLOAD,2023-02-26 18:03:29,15.08844811,0.0001367,53.2181,333.0297,64.4034,295.7099,0.00016601,2.355e-05,0.0,0 STARLINK-5435,1 54797U 22175AR  23057.75242475  .00002355  00000-0  16601-3 0  9994,2 54797  53.2181 333.0297 0001367  64.4034 295.7099 15.08844811 10652,6917.866,95.437,540.676,538.785,0.0
54797.0,STARLINK-5435,PAYLOAD,2023-02-27 00:25:01,15.08850711,8.82e-05,53.2175,331.84,70.1315,289.9772,0.00013119,1.801e-05,0.0,0 STARLINK-5435,1 54797U 22175AR  23058.01737923  .00001801  00000-0  13119-3 0  9997,2 54797  53.2175 331.8400 0000882  70.1315 289.9772 15.08850711 12857,6917.848,95.437,540.323,539.102,0.0
54797.0,STARLINK-5435,PAYLOAD,2023-02-27 17:54:14,15.08867538,0.0001134,53.2175,328.564,98.4364,261.6756,0.00021017,3.061e-05,0.0,0 STARLINK-5435,1 54797U 22175AR  23058.74599583  .00003061  00000-0  21017-3 0  9991,2 54797  53.2175 328.5640 0001134  98.4364 261.6756 15.08867538 10801,6917.796,95.436,540.446,538.877,0.0
54797.0,STARLINK-5435,PAYLOAD,2023-02-28 03:26:27,15.0893366,0.0001383,53.2175,326.7784,97.2436,262.8713,0.00053863,8.317e-05,0.0,0 STARLINK-5435,1 54797U 22175AR  23059.14336915  .00008317  00000-0  53863-3 0  9997,2 54797  53.2175 326.7784 0001383  97.2436 262.8713 15.08933660 10865,6917.594,95.432,540.416,538.502,0.0
54797.0,STARLINK-5435,PAYLOAD,2023-02-28 20:55:45,15.08865625,0.0001469,53.2159,323.5077,129.1194,230.9929,-0.00011208,-2.073e-05,0.0,0 STARLINK-5435,1 54797U 22175AR  23059.87205225 -.00002073  00000-0 -11208-3 0  9998,2 54797  53.2159 323.5077 0001469 129.1194 230.9929 15.08865625 13131,6917.802,95.436,540.683,538.651,0.0
54797.0,STARLINK-5435,PAYLOAD,2023-03-01 03:17:23,15.08791901,9.63e-05,53.217,322.3203,93.3164,266.7938,-0.0007075,-0.00011515,0.0,0 STARLINK-5435,1 54797U 22175AR  23060.13707732 -.00011515  00000-0 -70750-3 0  9997,2 54797  53.2170 322.3203 0000963  93.3164 266.7938 15.08791901 11016,6918.027,95.441,540.559,539.226,0.0
